AEROCUBE 12A            
1 43556U 18046C   20336.51068958  .00004312  00000-0  15603-3 0  9996
2 43556  51.6418  22.5441 0007961 169.6800 190.4346 15.30511079132950
AEROCUBE 12B            
1 43557U 18046D   20335.62650004  .00005490  00000-0  19765-3 0  9998
2 43557  51.6421  27.8721 0008220 167.3199 192.7990 15.30113201132752
SIRIUSSAT-1             
1 43595U 98067PG  20335.69662336  .00438497  10226-3  56251-3 0  9991
2 43595  51.6120 146.1626 0010162 227.2207 137.8819 16.06556672131355
SIRIUSSAT-2             
1 43596U 98067PH  20335.71510880  .00445246  10503-3  57179-3 0  9999
2 43596  51.6244 146.9320 0014401 350.2156  72.2160 16.06421442131348
SURFSAT                 
1 43614U 18070B   20336.31645856  .00007845  00000-0  19417-3 0  9995
2 43614  93.0287 223.7198 0017330  57.8822 302.4112 15.40287678124151
CP7 (DAVE)              
1 43615U 18070C   20336.23627637  .00007502  00000-0  18695-3 0  9991
2 43615  93.0289 223.6653 0017499  57.8268 302.4681 15.40079521124134
ELFIN-B                 
1 43616U 18070D   20335.78480927  .00011604  00000-0  27178-3 0  9994
2 43616  93.0249 223.4891 0017793  59.3380 300.9627 15.41924281124138
ELFIN-A                 
1 43617U 18070E   20336.11784336  .00012102  00000-0  28052-3 0  9990
2 43617  93.0303 224.2847 0017089  55.7657 304.5215 15.42246535124194
CUBEBEL-1 (BSUSAT-1)    
1 43666U 18083E   20336.55991595  .00002732  00000-0  13482-3 0  9992
2 43666  97.4761   1.2878 0016098 134.5932 329.6838 15.18645968115973
CICERO 10               
1 43690U 18088A   20335.74897731  .00003147  00000-0  14148-3 0  9992
2 43690  85.0353 328.7263 0016995  64.3803 295.9192 15.20578652114007
IRVINE01                
1 43693U 18088D   20335.95969308  .00007696  00000-0  31645-3 0  9992
2 43693  85.0324 326.7303 0019064  44.2589 316.0175 15.23813666114195
PROXIMA I               
1 43694U 18088E   20336.14203049  .00003117  00000-0  13285-3 0  9992
2 43694  85.0296 326.5778 0020386  36.5315 323.7312 15.22325931114198
PROXIMA II              
1 43696U 18088G   20335.74573713  .00003203  00000-0  13655-3 0  9994
2 43696  85.0296 326.8458 0020480  37.8135 322.4541 15.22324089114134
FACSAT-1                
1 43721U 18096C   20336.48152459  .00005041  00000-0  18765-3 0  9993
2 43721  97.4064  49.0606 0015854 250.5732 230.6250 15.27827457111886
CENTAURI-2              
1 43722U 18096D   20336.35402044  .00006741  00000-0  24455-3 0  9999
2 43722  97.4086  49.3944 0015769 250.1567 109.7973 15.28550715111885
INNOSAT-2               
1 43738U 18096V   20336.50138184  .00009191  00000-0  30316-3 0  9999
2 43738  97.4120  52.2494 0021207 255.1164 231.1834 15.31443142112084
SIRION PATHFINDER-2     
1 43759U 18099B   20336.20179826  .00000310  00000-0  33227-4 0  9999
2 43759  97.6899  44.8698 0014091 352.0280   8.0718 14.95362520108855
CORVUS-BC 4             
1 43767U 18099K   20336.20502281  .00000317  00000-0  34293-4 0  9994
2 43767  97.6882  44.0967 0011782 357.8010   2.3157 14.94803385108813
MOVE-II                 
1 43780U 18099Y   20336.46398214  .00001513  00000-0  14122-3 0  9993
2 43780  97.6907  45.1249 0013260   2.7236 357.4055 14.95600167108871
SPACEBEE-7              
1 43816U 18099BL  20336.17140559  .00000762  00000-0  73207-4 0  9993
2 43816  97.6926  45.3286 0012966 348.0381  12.0530 14.95861023108416
SPACEBEE-5              
1 43817U 18099BM  20336.44778509  .00002407  00000-0  21556-3 0  9993
2 43817  97.6991  46.3508 0012523 345.2485  14.8370 14.96699258108489
SPACEBEE-6              
1 43818U 18099BN  20335.77623807  .00001192  00000-0  11092-3 0  9993
2 43818  97.6946  45.1717 0012879 348.6587  11.4342 14.96116895108510
SHIELDS 1               
1 43850U 18104B   20336.25958613  .00001614  00000-0  69643-4 0  9991
2 43850  85.0312  65.0569 0015155 168.7090 191.4495 15.21575962108836
STF-1                   
1 43852U 18104D   20336.01083870  .00004050  00000-0  17679-3 0  9999
2 43852  85.0354  65.8564 0014271 183.9491 176.1640 15.21715739108772
ZACUBE-2                
1 43907U 18111AH  20336.56767679  .00001742  00000-0  72701-4 0  9997
2 43907  97.2496 231.1378 0019574 274.1271 204.0193 15.24819094107478
LUME 1                  
1 43908U 18111AJ  20335.75655509  .00003732  00000-0  14954-3 0  9992
2 43908  97.2502 230.6562 0019189 276.0388  83.8664 15.25477273107373
AOBA VELOX-IV           
1 43940U 19003J   20335.61670636  .00005978  00000-0  23534-3 0  9990
2 43940  97.2076  21.0590 0023155 359.4684   0.6526 15.25738039103977
CATSAT-2                
1 44029U 98067PV  20336.30269736  .00061448  00000-0  41349-3 0  9996
2 44029  51.6355 186.2053 0000404  11.8708 348.2301 15.74557112104716
DELPHINI                
1 44030U 98067PW  20335.78065614  .00099568  00000-0  59380-3 0  9996
2 44030  51.6304 185.4939 0000737 212.1535 147.9420 15.77121506104644
UNITE                   
1 44031U 98067PX  20335.67157259  .00035143  00000-0  34318-3 0  9995
2 44031  51.6357 202.2264 0001039 359.3061   0.7933 15.65834322104410
CATSAT-1                
1 44033U 98067PZ  20336.30233295  .00058442  00000-0  39294-3 0  9998
2 44033  51.6355 186.2132 0000714  12.0278 348.0739 15.74596299104620
RAAVANA-1               
1 44329U 98067QE  20335.71675175  .00039012  00000-0  42874-3 0  9997
2 44329  51.6374 218.3696 0004238 245.6405 114.4147 15.62777881 82956
UGUISU                  
1 44330U 98067QF  20336.06046164  .00033801  00000-0  37438-3 0  9998
2 44330  51.6350 216.8709 0004219 246.5921 113.4629 15.62647267 82983
NEPALISAT-1             
1 44331U 98067QG  20335.70779561  .00038710  00000-0  42549-3 0  9996
2 44331  51.6348 218.2676 0004140 248.5189 111.5364 15.62777421 82948
SPOOQY-1                
1 44332U 98067QH  20336.49354706  .00031659  00000-0  35184-3 0  9996
2 44332  51.6355 214.5287 0003329 251.2730 108.7903 15.62597715 83028
SPACEBEE-9              
1 44370U 19037F   20336.50175482  .00029845  00000-0  57605-3 0  9998
2 44370  45.0049 259.7717 0012052 104.8706 255.3520 15.47264517 80435
SPACEBEE-8              
1 44371U 19037G   20335.82385188  .00086126  00000-0  11866-2 0  9992
2 44371  45.0047 249.6526 0011289 131.3824 228.8042 15.56240824 80470
IOD-1 GEMS              
1 44385U 98067QK  20336.07904356  .00080136  00000-0  66584-3 0  9992
2 44385  51.6358 210.3240 0003946 191.3893 168.7016 15.69449147 80559
MOVE-IIB                
1 44398U 19038N   20335.93726369  .00004099  00000-0  23556-3 0  9993
2 44398  97.5574 295.2819 0023207 275.8647  83.9942 15.12837062 77741
SONATE                  
1 44400U 19038Q   20335.89137139  .00001870  00000-0  11159-3 0  9993
2 44400  97.5622 295.2248 0023317 273.8686  85.9880 15.12179720 77729
LUCKY-7                 
1 44406U 19038W   20335.67758550  .00001944  00000-0  11488-3 0  9998
2 44406  97.5626 295.1765 0022798 273.9646  85.8978 15.12491882 77690
BEESAT 9                
1 44412U 19038AC  20335.59767205  .00002978  00000-0  17325-3 0  9997
2 44412  97.5612 295.0845 0020860 280.5295  79.3586 15.12661078 77387
JAISAT-1                
1 44419U 19038F   20336.49067397  .00002956  00000-0  16978-3 0  9998
2 44419  97.5620 296.3612 0019660 275.7651  84.1338 15.13151282 77850
SWIATOWID               
1 44426U 98067QL  20336.51808532  .00106973  00000-0  78539-3 0  9997
2 44426  51.6374 205.5554 0004524 189.3183 239.6663 15.72282781 80671
KRAKSAT                 
1 44427U 98067QM  20336.26541757  .00026934  00000-0  33949-3 0  9997
2 44427  51.6418 221.8787 0003354 191.3266 269.7167 15.59400838 80476
VCC A                   
1 44428U 98067QN  20336.23510487  .00034028  00000-0  38794-3 0  9997
2 44428  51.6378 218.1348 0002633 198.8913 161.1983 15.61903337 80526
ENTRYSAT                
1 44429U 98067QP  20336.50178007  .00039761  00000-0  41459-3 0  9997
2 44429  51.6348 213.8577 0002922 191.7019 168.3909 15.64117223 80600
VCC C                   
1 44430U 98067QQ  20335.71244154  .00068042  00000-0  62504-3 0  9996
2 44430  51.6348 214.5880 0002820 188.0362 172.0590 15.67063284 79341
VCC B                   
1 44431U 98067QR  20335.97137500  .00034791  00000-0  39478-3 0  9999
2 44431  51.6360 219.3340 0002757 199.8978 160.1908 15.62013801 80429
DUCHIFAT-3              
1 44854U 19089C   20336.00804506  .00000975  00000-0  84893-4 0  9996
2 44854  36.9658 193.9560 0009599 326.3999  33.6150 14.99224246 53302
EYESAT-NANO             
1 44877U 19092E   20335.76248752  .00003630  00000-0  18536-3 0  9993
2 44877  97.4543 156.3783 0014046 155.4288 204.7617 15.17248624 52807
ORBITAL FACTORY 2 (OF-2)
1 45113U 19071C   20336.22986853  .00006634  00000-0  20796-3 0  9995
2 45113  51.6434 277.5032 0011956 300.3820  59.5980 15.34226863 46728
M2 PATHFINDER           
1 45727U 20037E   20335.74754682  .00000123  00000-0  17846-4 0  9999
2 45727  97.7017 152.0121 0014068 105.7988 254.4773 14.91268370 22802
NETSAT-4                
1 46504U 20068U   20335.77503308  .00001678  00000-0  13296-3 0  9997
2 46504  97.6693 268.5246 0011378  49.7457 310.4791 15.01873829  9413
NETSAT-3                
1 46505U 20068V   20335.84328028  .00001607  00000-0  12764-3 0  9991
2 46505  97.6658 268.5824 0011091  50.8421 309.3789 15.01830702  9432
NETSAT-1                
1 46506U 20068W   20335.77843747  .00001457  00000-0  11633-3 0  9991
2 46506  97.6663 268.5151 0011002  51.4811 308.7428 15.01785441  9425
NETSAT-2                
1 46507U 20068X   20335.84567994  .00001280  00000-0  10280-3 0  9998
2 46507  97.6660 268.5816 0011317  51.2004 309.0232 15.01766690  9389
SPOC                    
1 46921U 98067RR  20336.32923441  .00013041  00000-0  23064-3 0  9991
2 46921  51.6431 241.2168 0003010  73.7674 286.3646 15.50666248  4075
BOBCAT-1                
1 46922U 98067RS  20336.13518431  .00018244  00000-0  31769-3 0  9991
2 46922  51.6432 242.1718 0002851  77.9396 282.1912 15.50811856  4007
